ISO,Site Name,Address_Line_1,Address_Line_2,Address_Line_3,City,State,ZipCode,Site,Ordering Site,Country,,,
USA,SPC-OKLAHOMA CITY,DHL C/O DBA DSS Final Mile,UNISYS STOCK,1825 N Walnut Ave,Oklahoma City,OK,73105,45,63432,USA,35.48657383,-97.5102663,
USA,SPC-RALEIGH,DHL C O AGS,UNISYS STOCK,6216 ANGUS DRIVE  SUITE   E,RALEIGH,NC,276170000,47,63441,USA,35.9017424,-78.7532884,
USA,SPC-ROANOKE,Mobile One Courier & Logistics,DHL UNISYS STOCK,1260 TRAPPER CIR,ROANOKE,VA,24012,48,63442,USA,37.33079,-79.96641,
USA,SPC-PENSACOLA,HACKBARTH DELIVERY   DHL   UNISYS,,3340 MCLEMORE DRIVE,PENSACOLA,FL,325140000,49,63436,USA,30.5327462,-87.2120599,
USA,SPC-OMAHA,DHL C O ONTRAC,UNISYS STOCK,2675 NORTH 9TH STREET,CARTER LAKE,IA,515100000,53,63433,USA,41.2945721,-95.9145568,
USA,SPC-BUFFALO ,DHL C O PREMIER EXPRESS,UNISYS STOCK,181 COOPER AVE SUITE 104,TONAWANDA,NY,14150,54,63355,USA,42.98614481,-78.90673081,
USA,SPC-BALTIMORE,DHL C O AMERICAN EXPEDITING,UNISYS STOCK,1667 KNECHT AVE  J,BALTIMORE,MD,212270000,110,63352,USA,39.2396095,-76.6816962,
USA,SPC-MILWAUKEE,DHL C O PURPLE MOUNTAIN SOLUTIONS,UNISYS STOCK,2200 S 114TH STREET,WEST ALLIS,WI,53227,132,63405,USA,43.00448,-88.0533,
USA,SPC-FRESNO,DHL C O RIGHT NOW COURIERS LLC,UNISYS STOCK,96 S WEST AVE,FRESNO,CA,937060000,139,63379,USA,36.7422237,-119.8273631,
USA,SPC-ALBANY,Arnoff Global Logistics,UNISYS STOCK,10 STONEBREAK ROAD,MALTA,NY,12020,166,63339,USA,42.96247,-73.78851,
USA,SPC-KANSAS CITY,"Tempo Transportation , LLC",UNISYS STOCK,"15342 S Keeler St, Ste A",OLATHE,MO,66062,245,63394,USA,38.84996,-94.80874,
USA,SPC-HARTFORD,DHL C O QUICK DELIVERY LLC,UNISYS STOCK,92 THOMAS STREET,EAST HARTFORD,CT,61080000,260,63389,USA,41.7785885,-72.6210303,
USA,SPC-RICHMOND,DHL C O EXCEL COURIER,UNISYS STOCK,8401 SANFORD DRIVE,RICHMOND,VA,23228,360,63450,USA,37.62743579,-77.50162357,
USA,SPC-ORLANDO,DHL C O AMERICAN EXPEDITING,UNISYS STOCK,1924 PREMIER ROW,ORLANDO,FL,328090000,411,63435,USA,28.4588856,-81.3949264,
USA,SPC-MIAMI,DHL C O APPLE EXPRESS,UNISYS STOCK,1715 NW 84TH AVENUE,MIAMI,FL,331260000,431,63404,USA,25.7786470,-80.2962385,
USA,SPC-TAMPA,AMERICAN EXPEDITING   DHL   UNISYS,,6002 BENJAMIN ROAD,TAMPA,FL,336340000,435,63456,USA,28.0157400,-82.5510469,
USA,SPC-MEMPHIS,DHL C O EXEL INC,UNISYS STOCK,4140 BF GOODRICH BLVD,MEMPHIS,TN,381180000,450,63403,USA,35.0277847,-89.9346659,
USA,SPC-ST LOUIS,DHL C O CROSSROADS COURIER,UNISYS STOCK,2008 ALTOM CT,SAINT LOUIS,MO,631460000,550,63455,USA,38.629834,-90.248925,
USA,SPC-SANTA ANA,DHL C O ECLIPSE MESSENGER,UNISYS STOCK,3400 IRVIVE AVE  SUITE 113,NEWPORT BEACH,CA,926600000,586,63451,USA,33.6301328,-117.8721676,
USA,SPC-DENVER,DHL C O INTELLIQUICK DELIVERY INC,UNISYS STOCK,4010 HOLLY ST   16,DENVER,CO,80216,620,63367,USA,39.77278,-104.9213,
USA,SPC-HOUSTON,DHL C O HOT SHOT FINAL MILE,UNISYS STOCK,12333 SOWDEN ROAD,HOUSTON,TX,770800000,630,63391,USA,29.8276327,-95.4988385,
USA,SPC-AUSTIN,CORPORATE COURIER,,2335 KRAMER LANE,AUSTIN,TX,787580000,631,63351,USA,30.3870686,-97.7036561,
USA,SPC-DES MOINES,DHL C O Capital Express,UNISYS STOCK,1400 SE 11 ST,Grimes,IA,50111,632,63368,USA,41.679229,-93.7821056,
USA,SPC-SAN ANTONIO,DHL C O DYNAMEX INC,UNISYS STOCK,10700 SENTINEL STREET  BLDG 1,SAN ANTONIO,TX,782170000,634,63446,USA,29.5389660,-98.4239055,
COL,SPC-MEDELLIN,UNISYS DE COLOMBIA S.A.,OFICINA DHL MEDELLIN,CARRERA 58 NO.9-12,MEDELLIN,ANTIOQU,0,643,76701,COLOMBIA,6.2538736,-75.5767046,
COL,SPC-CALI,UNISYS DE COLOMBIA  S.A.,OFICINA DHL CALI. (ACOPI - YUMBO),CRA 40 NO. 13 - 45. ACOPI - YUMBO,CALI,CAUCA,2,658,76654,COLOMBIA,3.4524600,-76.5357580,
USA,SPC-SEATTLE,DHL C O AMERICAN EXPEDITING,UNISYS STOCK,405 EVANS BLACK DR,TUKWILA,WA,98188,700,63452,USA,47.45915,-122.25121,
USA,SPC-PORTLAND,DHL SUPPLY CHAIN,UNISYS STOCK,5665-B NE WAGON DRIVE,HILLSBORO,OR,971240000,800,63440,USA,45.5623679,-122.9090293,
USA,SPC-WASHINGTON DC,DHL C O AGS,UNISYS STOCK,8305 MERRIFIELD AVE  SUITE E,FAIRFAX,VA,220310000,2229,63458,USA,38.8641870,-77.2577571,
USA,SPC-SACRAMENTO,DHL C/O PACIFIC COAST LOGISTIX,UNISYS STOCK,4212 ROSEVILLE RD STE E,NORTH HIGHLANDS,CA,956600000,6246,63444,USA,38.6421185,-121.3992743,
CAN,SPC-EDMONTON,APPLE EXPRESS EDMONTON,,6378 ROPER ROAD,EDMONTON,AB,     T6B 3P9,10031,10270,CANADA,53.49725,-113.42915,
CAN,SPC-FREDERICTON,APPLE EXPRESS COURIER LTD ,c/o McMinn man’s Transfer Ltd.,297 Restigouche Road,Oromocto,NB,E2V 2H2,10032,10272,CANADA,45.848614,-66.473379,
CAN,SPC-LONDON,UNISYS CANADA INC.,C O HELIX COURIER,549 FIRST STREET,LONDON,ON,     N5V 1Z5,10034,10282,CANADA,43.0038162,-81.1969680,
CAN,SPC-MISSISSAUGA,UNISYS CANADA INC.,C O APPLEEXPRESS,5300 SATELLITE DRIVE,MISSISSAUGA,ON,     L4W 5J2,10037,10287,CANADA,43.6571525,-79.6126600,
CAN,SPC-WINNIPEG,DHL/APPLE EXP. C/O FRONTIER SCS,UNISYS STOCK,310-555 Hervo Street,Winnipeg,MB,     R3T 3L6,10039,10358,CANADA,49.8240446,-97.1601043,
CAN,MDC-CAN-TORONTO,UNISYS CANADA INC. C O EXEL CANADA,UNIT 7 – DOCK 38,4175 - 14TH AVENUE,MARKHAM,ON,     L3R 5R5,10050,10347,CANADA,43.8385992,-79.3159237,
CAN,SPC-HALIFAX,UNISYS CANADA INC,C O FOCUS LOG. HALIFAX,1 GURHOLT DR.,DARTMOUTH,NS,     B3B 1J8,10104,10276,CANADA,44.7107744,-63.6084568,
CAN,SPC-OTTAWA,UNISYS CANADA INC.,C O APPLE EXPRESS,2905 SWANSEA CRES -UNIT 100,OTTAWA,ON,K1G 3L6,10141,10294,CANADA,45.400450,-75.609607,
CAN,SPC-WINDSOR,APPLE EXPRESS - AGENT 2062 DEL GUYS,UNISYS STOCK,5600 OUTER DRIVE,WINDSOR,ON,     N9A 6J3,10142,10357,CANADA,42.2982896,-82.9753573,
CAN,SPC-SAINT JOHN NB,UNISYS CANADA INC.,APPLE EXPRESS,55 BENTLEY ST. - UNIT 3,SAINT JOHN,NB,E2K 1B2,10143,10305,CANADA,45.26901,-66.07965,
CAN,SPC-MONCTON,UNISYS CANADA STOCK,C O ON TARGET COURIER A CARGO LTD,385 FRENETTE AVE .,MONCTON,NB,     E1H 3S5,10154,10288,CANADA,46.1387653,-64.7231762,
CAN,SPC-SASKATOON,DHL C O UNITED TRANSFER,UNISYS STOCK,520 46TH STREET EAST,SASKATOON,SK,S7K 0W9,10420,10311,CANADA,52.16541,-106.66072,
CAN,SPC-THUNDER BAY,UNISYS CANADA INC. - UNISYS STOCK,C O AM DIRECT INC,648 SQUIER STREET  UNIT 5,THUNDER BAY,ON,     P7B 4A8,10500,10345,CANADA,48.4157106,-89.2480158,
CAN,SPC-TERRACE,UNISYS CANADA C O APPLE EXPRESS,PENDRAGON COMPUTERS INC.,4718 MCCONNELL AVE.,TERRACE,BC,     V8G 2G8,10501,10339,CANADA,54.5284680,-128.5941852,
CAN,SPC-SUDBURY,DHL C O EXPRESS PARCEL - SUDBURY,UNISYS STOCK,598 FALCONBRIDGE ROAD UNIT   10,SUDBURY,ON,     P3A 5K6,10502,10320,CANADA,46.5121924,-80.9291852,
CAN,SPC-VICTORIA,UNISYS CANADA INC.,C O MAXIMUM EXPRESS,576 HILLSIDE AVE. UNIT 1,VICTORIA,BC,     V8T 1Y9,10503,10355,CANADA,48.4375364,-123.3716515,
CAN,SPC-PRINCE GEORGE,DHL - UNISYS STOCK,C O WEE TOTE,1824 1ST AVENUE,PRINCE GEORGE,BC,     V2L 2Y8,10504,10295,CANADA,53.9210923,-122.7547410,
CAN,SPC-KAMLOOPS,UNISYS CANADA C O APPLE EXPRESS,PRESTIGE PARCEL PICK-UP LTD,UNIT  1 - 1121 12TH STREET,KAMLOOPS,BC,     V2B 8A7,10505,10279,CANADA,50.7058307,-120.3732596,
CAN,SPC-KELOWNA,APPLE EXPRESS COURIER LTD C/O WEE-TOTES,UNISYS STOCK,UNIT 103A - 720 EVANS COURT,KELOWNA,BC,V1X 6G4,10506,10281,CANADA,49.9092255,-119.4001050,
CAN,SPC-NANAIMO,DHL C O WEE-TOTE NANAIMO,UNISYS STOCK,4386 BOBAN DRIVE  UNIT  10B,NANAIMO,BC,     V9T 6A7,10507,10293,CANADA,49.2090808,-124.0367125,
CAN,SPC-GRANDE PRAIRIE,DHL C O HERE2THERE,UNISYS STOCK,10518 96 AVENUE,GRANDE PRAIRIE,AB,     T8V 5S2,10508,10274,CANADA,55.1629417,-118.8151608,
CAN,SPC-WHITEHORSE,UNISYS CANADA INC.,C O A 1 DELIVERY,11 BURNS ROAD,WHITEHORSE,YT,     Y1A 6K8,10509,10356,CANADA,60.7191759,-135.0536301,
CAN,SPC-CRANBROOK,APPLE EXPRESS C O CRANBROOK COMPUTE,,135 - 6 TH AVE  S,CRANBROOK,BC,     V1C 2H5,10510,10268,CANADA,49.5093397,-115.7734120,
CAN,SPC-VANCOUVER,UNISYS CANADA INC,C O APPLE EXPRESS,3171  6 ROAD  UNIT 130,RICHMOND,BC,     V6V 1P6,10511,10352,CANADA,49.1870164,-123.0700776,
CAN,SPC-FORT MCMURRAY,DHL C O MYT CONTRACTING,UNISYS STOCK,129 WOODPECKER PLACE,FORT MCMURRAY,AB,     T9K 0L4,10512,10271,CANADA,56.7511470,-111.4348407,
CAN,SPC-MEDICINE HAT,UNISYS CANADA APPLE EXPRESS TECH 2,,948 ROSS GLEN DR. SE,MEDICINE HAT,AB,T1B 2Y9,10515,10286,CANADA,50.0573,-110.68,
CAN,SPC-YELLOWKNIFE,UNISYS CANADA INC.,C O DYNAMIC SERVICES,101 BRISTOL AVE.,YELLOWKNIFE,NT,     X1A 2N2,10516,10359,CANADA,62.4547114,-114.3712222,
CAN,SPC-BRANDON,UNISYS CANADA INC,C O HELPTEK COMPUTER SERVICES,8 - 2010 CURRIE BLVD,BRANDON,MB,     R7B 4E7,10517,10259,CANADA,49.8186329,-99.9637548,
CAN,SPC-DEER LAKE,UNISYS CANADA C O APPLE EXPRESS,DEAN SIMMONS,58 WIGHT`S ROAD,DEER LAKE,NL,     A8A 2H8,10519,10267,CANADA,49.1797899,-57.4271453,
CAN,SPC-GANDER,APPLE EXPRESS C O ABMIS,,93 EDINBURGH AVENUE,GANDER,NL,     A1V 1C9,10520,10273,CANADA,48.9621776,-54.6107357,
CAN,SPC-ST.JOHN`S,MILLENNIUM EXPRESS DHL UNISYS,,165 MCNAMARA DRIVE,PARADISE,NL,     A1L 0A7,10521,10312,CANADA,47.5163900,-52.8719029,
CAN,SPC-CALGARY,UNISYS CANADA INC.,C O APPLE EXP. CALGARY,108-10725 25 ST. NE,CALGARY,AB,     T3N 0A4,10524,10266,CANADA,51.1725010,-113.9582219,
CAN,SPC-SYDNEY,UNISYS DHL PREMIERE VAN LINES,UNISYS SERVICE SPARES,104 MARINE DR SUITE C,EDWARDSVILLE,NS,     B2A 4S6,10525,10331,CANADA,46.1662128,-60.2341395,
CAN,SPC-MONTREAL,UNISYS CANADA INC.,C O APPLE EXPRESS,1685 RUE BEAULAC,SAINT-LAURENT,QC,H4R 1Z1,10615,10291,CANADA,45.49419747,-73.70381323,
CAN,SPC-QUEBEC CITY,UNISYS CANADA INC C O MED EXPRESS,,6405 ZEPHIRIN-PAQUET,QUEBEC CITY,QC,     G2C 0M2,10936,10296,CANADA,46.8300910,-71.3340759,
CAN,SPC-REGINA,UNISYS CANADA INC.,C O COUTTS COURIER,1055 McKay St.,REGINA,SK,S4N 4X9,10939,10298,CANADA,50.46228897,-104.5794809,
MEX,SPC-GUADALAJARA,DHL,,PERIFéRICO SUR  NO. 5890  NAVE C1,TLAQUEPAQUE,,45590,11012,10360,MEXICO,20.6066400,-103.3370710,
MEX,MDC-MEX-MEXICO CITY,UNISYS DE MEXICO  S.A. DE C.V,,NICANOR ARVIDE  425,MEXICO CITY,CD.MEXICO,1280,11133,11002,MEXICO,19.2503474,-99.0707349,
MEX,SPC-MONTERREY,DHL C O UNISYS MEXICO,,PROLONGACIóN PINO SUAREZ   3005,MONTERREY,,64410,11390,10361,MEXICO,25.7018232,-100.3182170,
AUS,SPC-BRISBANE,UNISYS AUSTRALIA PTY. LIMITED,C - DHL SUPPLY CHAIN,52-54 QANTAS DRIVE,BRISBANE AIRPORT,QLD,4007,12205,12187,AUSTRALIA,-27.4366918,153.0648006,
AUS,SPC-PERTH,DHL SUPPLY CHAIN,UNISYS STOCK,18 BAILE ROAD,CANNING VALE,,6155,12301,12194,AUSTRALIA,-32.071720,115.898488,
AUS,SPC-CANBERRA,UNISYS ODC CANBERRA,C - DHL SUPPLY CHAIN,UNIT6A  3 BARRIER STREET,FYSHWICK,ACT,2609,12405,12419,AUSTRALIA,-35.3290000,149.1740000,
AUS,SPC-MELBOURNE,UNISYS AUSTRALIA PTY. LIMITED,C - DHL SUPPLY CHAIN,18-22 SALMON ST. VIA DR5 PLUMMER ST,PORT MELBOURNE,VIC,3207,12503,12189,AUSTRALIA,-37.8315264,144.9226452,
AUS,SPC-ADELAIDE,UNISYS AUSTRALIA PTY. LIMITED,C - DHL SUPPLY CHAIN,UNIT 2  21-39 PRODUCE LANE,POORAKA,SA,5095,12601,12261,AUSTRALIA,-34.8244440,138.6269440,
AUS,SPC-DARWIN,UNISYS AUSTRALIA PTY. LIMITED,C - DHL SUPPLY CHAIN,8 CATTERTHUN STREET,WINNELLIE,NT,820,12606,12110,AUSTRALIA,-12.4288890,130.8697220,
AUS,MDC-AUS-SYDNEY,UNISYS AUSTRALIA PTY. LIMITED,C - DHL SUPPLY CHAIN,BUILDING E2   350 PARRAMATTA ROAD,HOMEBUSH,NSW,2140,12901,12188,AUSTRALIA,-33.8586230,151.0791612,
NZL,MDC-NZL-AUCKLAND,UNISYS NEW ZEALAND C O DHL,HIGHBROOK SITE 1,103 KERWYN AVENUE,EAST TAMAKI,,2013,13102,13401,NEW ZEALAND,-36.9432115,174.8936770,
NZL,SPC-WELLINGTON,UNISYS NEW ZEALAND LTD,C O DHL EXEL SUPPLY CHAIN,UNIT 3  4 GLOVER STREET,WELLINGTON,NZ,6001,13220,13403,NEW ZEALAND,-41.2864603,174.7762360,
USA,SPC-VAN NUYS,DHL C O ACTION MESSENGER SERVICES,UNISYS STOCK,7525 ETHEL AVE,NORTH HOLLYWOOD,CA,916050000,20342,63457,USA,34.2081950,-118.3987842,
USA,SPC-SAN DIEGO,DHL C O PRO COURIER,UNISYS STOCK,7949 STROMESA COURT  STE F,SAN DIEGO,CA,921260000,20456,63447,USA,32.8921483,-117.1483505,
USA,SPC-ONTARIO,DHL C O PRO COURIER,UNISYS STOCK,14141 The Merge,East vale,CA,92880,21059,63434,USA,34.063343,-117.650887,
USA,SPC-CHARLESTON,DHL C O VELOX EXPRESS INC,UNISYS STOCK,402 28TH STREET,DUNBAR,WV,250640000,22278,63356,USA,38.3606509,-81.7373485,
USA,SPC-NEW ORLEANS,DHL C O BLAZE EXPRESS COURIER,UNISYS STOCK,5420 TOLER STREET,HARAHAN,LA,701230000,22285,63408,USA,29.9404826,-90.2031313,
USA,SPC-LITTLEROCK,NWA COURIER   DHL   UNISYS,UNISYS STOCK,1100 Jones St.,Little Rock,AR,72202,22286,63397,USA,34.7405,-92.30277,
USA,SPC-KNOXVILLE,DHL C O CROSSTOWN COURIER,UNISYS STOCK - SUITE E,3267 NORTH PK BLVD  BUILDING 10,ALCOA,TN,377010000,22287,63395,USA,35.7919891,-83.9797173,
USA,SPC-NORFOLK,DHL C O MOBILE ONE COURIER,UNISYS STOCK,1619 DIAMOND SPRINGS RD,NORFOLK,VA,234550000,22291,63431,USA,36.9018912,-76.1804569,
USA,MDC-USA-COLUMBUS (WDC),UNISYS C O EXEL,DOCK DOORS 14-16,4900 CREEKSIDE PKWY,LOCKBOURNE,OH,431370000,24601,63358,USA,39.8089185,-82.9692863,
USA,SPC-CHICAGO,DHL C/O CYCLE LOGISTICS,UNISYS STOCK,1550 BRYN MAWR AVE,ITASCA,IL,60143,24680,21369,USA,41.9768825,-88.0401295,
USA,SPC-COLUMBIA,DHL C O COURIER EXPRESS,UNISYS STOCK,201 COMMERCE DR NE,COLUMBIA,SC,292230000,27632,63364,USA,34.0573265,-80.9963447,
USA,SPC-BIRMINGHAM,DHL C O VELOX EXPRESS,UNISYS STOCK,209 OXMOOR CIRCLE STE 704,BIRMINGHAM,AL,352090000,27633,63353,USA,33.4541279,-86.8375967,
USA,SPC-SIOUX FALLS,DHL C O SAME DAY EXPRESS,,43 N. JOHN ORR DR,SIOUX FALLS,SD,57104,27634,63453,USA,43.58705,-96.73091,
USA,SPC-LOUISVILLE,DHL C O VELOX EXPRESS INC.,UNISYS STOCK,820 ULRICH AVENUE,LOUISVILLE,KY,402190000,27636,63402,USA,38.1422302,-85.6743082,
USA,SPC-ROCHESTER,DHL C O TFORCE JET X DEL SERVICE,UNISYS STOCK,270 BUELL ROAD,ROCHESTER,NY,146240000,27637,63443,USA,43.1688560,-77.6936948,
USA,SPC-SALT LAKE CITY,DHL C O Western Peaks Logistics,UNISYS STOCK,6628 W. 700 N. Suite 506,Salt Lake City,UT,84116,27638,63445,USA,40.78384,-112.04931,
USA,SPC-ALBUQUERQUE,DHL C O ELITE DELIVERY SERVICES INC,UNISYS STOCK,3720 HAWKINS STREET,ALBUQUERQUE,NM,871070000,27639,63348,USA,35.1624289,-106.6034699,
USA,SPC-NASHVILLE,DHL C O VELOX EXPRESS,UNISYS STOCK,501 METROPLEX DR STE 309,NASHVILLE,TN,372110000,27641,63407,USA,36.2305398,-86.7718017,
USA,SPC-PHOENIX,DHL C O DYNAMEX INC,UNISYS STOCK,9160 MCKEMY ST  SUITE 105,TEMPE,AZ,852840000,29115,63438,USA,33.3363836,-111.9343636,
USA,SPC-LAS VEGAS,DHL C O AMERICAN EXPEDITING,UNISYS STOCK,5175 W DIABLO DR - STE 104,LAS VEGAS,NV,891180000,29116,63396,USA,36.0809667,-115.2244853,
USA,SPC-HARRISBURG,DHL C O AMERICAN EXPEDITING CO,UNISYS STOCK,1160 A WEST TRINDLE ROAD,MECHANICSBURG,PA,170550000,29139,63388,USA,40.1732512,-76.9988669,
USA,SPC-PITTSBURGH,DHL C O AMERICAN EXPEDITING,UNISYS STOCK,1501 PREBLE AVE,PITTSBURGH,PA,152330000,29146,63439,USA,40.4567689,-80.0562864,
USA,SPC-CINCINNATI,DHL C O RELAY EXPRESS,UNISYS STOCK,498 COMMERCIAL DRIVE,FAIRFIELD,OH,450140000,29148,63359,USA,39.3282373,-84.5536678,
USA,SPC-INDIANAPOLIS,DHL C O American Expediting,UNISYS STOCK,2840 Fortune Circle Drive East Suite C,INDIANAPOLIS,IN,46241,29151,63392,USA,39.7228,-86.25712,
GBR,MDC-GBR-MILTON KEYNES,DHL - UNISYS EUROPE LIMITED,UNISYS STOCK,TONGWELL STREET FOX MILNE,MILTON KEYNES,,    MK15 0YS,30000,30362,United Kingdom,52.0517058,-0.7120676,
GBR,SPC-LEEDS,DHL C O RICO LOGISTICS,UNISYS EUROPE STOCK,FACTORY 1  PEPPER LANE,LEEDS,,LS10 2PP,30521,30360,United Kingdom,53.7763085,-1.5210303,
GBR,SPC-WARRINGTON,DHL-RICO LOGISTICS-UNISYS STOCK,UNIT 2 EUROPA COURT,GEMINI BUSINESS PARK,WARRINGTON,,     WA5 7TN,30523,30366,United Kingdom,53.4149382,-2.6118152,
GBR,SPC-GATESHEAD,DHL-RICO LOGISTICS-UNISYS STOCK,UNIT 1 9TH AVENUE EAST,TEAM VALLEY TRADING ESTATE,GATESHEAD,,    NE11 0EJ,30524,30356,United Kingdom,54.9265147,-1.6114669,
GBR,SPC-NOTTINGHAM,DHL-RICO LOGISTICS-UNISYS STOCK,48 EVELYN STREET,BEESTON,NOTTINGHAM,,     NG9 2EU,30526,30364,United Kingdom,52.9280494,-1.2044751,
GBR,SPC-LONDON CITY,DHL - UNISYS C O RICO LOGISTICS,UNIT 7 CANNING TOWN BUSINESS PARK,STEPHENSON STREET,LONDON,,     E16 4SA,30530,30361,United Kingdom,51.5189723,0.0039176,
GBR,SPC-PLYMOUTH,DHL-RICO LOGISTICS-UNISYS STOCK,"UNIT 6 FORRESTERS,","34 ESTOVER CLOSE,",PLYMOUTH,,     PL6 7PL,30532,30365,United Kingdom,50.42228234,-4.086967761,
GBR,SPC-BIRMINGHAM,DHL-RICO LOGISTICS-UNISYS STOCK,,UNITS 2 CRYSTAL DRIVE  SANDWELL,BIRMINGHAM,,     B66 1RD,30533,30334,United Kingdom,52.5037315,-1.9933269,
GBR,SPC-HEATHROW,DHL-RICO LOGISTICS,UNISYS EUROPE STOCK,UNIT 1A HORTON ROAD,WEST DRAYTON,,     UB7 8HX,30535,30357,United Kingdom,51.5113081,-0.4725265,
GBR,SPC-GATWICK,DHL-RICO LOGISTICS-UNISYS STOCK,UNIT 4 FARADAY CENTRE,FARADAY ROAD,CRAWLEY,,    RH10 9PX,30537,30027  ,United Kingdom,51.1314577,-0.1775518,
GBR,SPC-NORWICH,DHL C O ROAD RUNNER EXP. COURIERS,UNISYS EUROPE LIMITED STOCK,INDL EST  ST FAITHS LN   BURTON RD,NORWICH,,NR6 6AU,30541,30363,United Kingdom,52.66238327,1.284837199,
GBR,SPC-BRISTOL,DHL-RICO LOGISTICS-UNISYS STOCK,1380 AZTEC WEST BUSINESS PARK,PARK AVENUE,BRISTOL,,    BS32 4SY,30542,30335,United Kingdom,51.5422002,-2.5713254,
GBR,SPC-ABERDEEN,DHL - RICO LOGISTICS - UNISYS STOCK,UNIT 2 FORTISS INDUSTRIAL ESTATE,HARENESS CIRCLE,ABERDEEN,,    AB12 3LY,30544,30330,United Kingdom,57.1138930,-2.0788909,
GBR,SPC-EDINBURGH,DHL-RICO LOGISTICS-UNISYS STOCK,UNIT 3 ELPHINSTONE SQUARE,DEANS INDUSTRIAL ESTATE,LIVINGSTON,,    EH54 8RG,30546,30339,United Kingdom,55.8993889,-3.5824335,
GBR,SPC-BELFAST,DHL C/O TVS -SCS,UNISYS EUROPE LIMITED STOCK,10 MICHELIN ROAD,MALLUSK – BELFAST,,BT36 4BX,30547,30333,United Kingdom,54.67852654,-5.982845366,
IRL,SPC-DUBLIN,DHL - UNISYS EUROPE LIMITED,UNISYS STOCK,DUBLIN AIRPORT LOGISTICS PARK,DUBLIN,,11,30548,30367,Ireland,53.3498053,-6.2603097,
IRL,SPC-LIMERICK,DHL SAMEDAY,ARISE EUROPE,RAHEEN BUSINESS PARK,RAHEEN,,0,30550,30368,Ireland,52.3938956,-6.9658674,
NLD,SPC-AMSTERDAM,SEABOURNE  - DHL,UNISYS EUROPE LIMITED STOCK,CONTOUR AVE 75,HOOFDDORP,,2132,31258,31011,Netherlands,52.2794466,4.698983,
NLD,SPC-MEPPEL,DHL - CO SLS BV - UNISYS EUROPE LTD,UNISYS STOCK,DOUWENMAAT 2A,MEPPEL,,   7942   KD,31638,31012,Netherlands,52.7139003,6.1938384,
IND,MDC-IND-MUMBAI,UNISYS INDIA PVT. LTD,C-DHL SUPPLY CHAIN INDIA PVT LTD,44D SAFED PUL ANDHERI KURLA ROAD,MUMBAI,MH,400072,33000,33055,India,19.1029160,72.8871936,
IND,SPC-HYDERABAD,UNISYS INDIA PVT. LTD.,C- DHL SUPPLY CHAIN,LUX 2  INDUSTRIAL ESTATE,HYDERABAD,TG,500018,33002,33054,India,17.4546338,78.4061519,
IND,SPC-NOIDA,UNISYS INDIA PVT. LTD.,DHL S. C. INDIA. PVT.LTD,"A 13, Sector 84, Noida",NOIDA,UP,201305,33004,33057,India,28.556720,77.407940,
IND,SPC-PUNE,NISYS INDIA PVT. LTD.,C-DHL SUPPLY CHAIN,BEKARI  TALWADE ROAD  TALWADE HAVEL,PUNE,MH,412114,33005,33058,India,18.6831112,73.7977928,
IND,SPC-BANGALORE,UNISYS INDIA PVT.LTD.,AMR Business Park. C Block,Kodichickkanahalli Main Road,BANGALORE,KA,560068,33126,33048,India,12.9261382,77.6221091,
IND,SPC-CHENNAI,UNISYS INDIA PVT.LTD CO DHL SUPPLY,KATTUPAKKAM PANCHAYAT AND POST,NO 119 2A3  GOPARASANALLUR VILLAGE,CHENNAI,TN,600056,33127,33009,India,13.05098128,80.089971,
IND,SPC-CALCUTTA,UNISYS INDIA PVT.LTD.,C- DHL SUPPLY,71 CHRISTOPHER ROAD P.S. TANGRA,CALCUTTA,WB,700046,33128,33007,India,22.5460740,88.3860657,
IND,SPC-NEW DELHI,UNISYS INDIA PVT. LTD.,C- DHL SUPPLY CHAIN,E- 34 OKHLA PHASE II,NEW DELHI,DL,110020,33129,33056,India,28.53763304,77.27123842,
IND,SPC-GURGAON,UNISYS INDIA PVT. LTD.,C-DHL   KHASARA 1-10 MUSTAKIL NO 14,BEGUMPUR KHATOLA IND  AREA,GURGAON,HR,122001,33141,33053,India,28.4554726,77.0219019,
DNK,MDC-DNK-COPENHAGEN,DHL - CO DAN`X - UNISYS EUROPE LTD,UNISYS STOCK,VEJLEAAVEJ 9,ISHOEJ,,2635,34000,34002,Denmark,55.6234565,12.3177787,
DNK,UNISYS A/S MDC C/O BUDSTIKKEN,DANX - UNISYS EUROPE LIMITED ,,EUROPAVEJ 5 ,FREDERICIA,,7000,34141,34003,Denmark,55.5689,9.7495,
ESP,MDC-ESP-COSLADA,DHL SUPPLY CHAIN,DHL CIEMPOZUELOS,"c/ NISPEROS, Nº 3. CRTA NAC. IV KM 32,",750 PI LA SENDILLA,MADRID,28350  ,36000,36018,Spain,40.13839,-3.65322,
ESP,SPC-BILBAO,GESLOTRANS,POLIGONO LEGUIZAMON,C  NERVION 3. PAB 1,ETXEBARRI,,48450,36003,36017,Spain,43.2521373,-2.8851484,
ESP,SPC-ZARAGOZA,TOURLINE EXPRESS,CIUDAD DEL TRANSPORTE,CALLE D NAVE 12,SAN JUAN MOZARRIFAR,,50820,36006,36025,Spain,41.7165025,-0.8424976,
ESP,SPC-SEVILLA,DHL C/O NUT,UNISYS EUROPE LIMITED STOCK,c/ Zoologia 35,Sevilla,,41015,36008,36023,Spain,37.4284133,-5.9773874,
ESP,SPC-VALENCIA,SPC-AZA LOGISTICS,POLIGONO INDUSTRIAL JANCARLOS I,AVENIDA HENRY FORD S N,ALMUSSAFES,,46440,36010,36024,Spain,39.2927653,-0.4132080,
ESP,SPC-BARCELONA,DHL SUPPLY CHAIN,POLIGONO INDUSTRIAL NORD EST,CARRER DE LA TORRE BOBERA  41-49,SANT ANDREU DE LA BARCA,,8740,36107,36016,Spain,41.4470397,1.9728289,
SWE,MDC-SWE-STOCKHOLM,DHL - UNISYS EUROPE LIMITED,UNISYS STOCK,METALLVAGEN 33,ROSERSBERG,,      195 72,37000,33712,Sweden,59.5754894,17.8769791,
SWE,SPC-MALMO,DHL SUPPLY CHAIN  SWEDEN  AB,UNISYS EUROPE STOCK,FLANSBJERSVAGEN 15,ARLOV,,232 91,37024,33711,Sweden,55.6402145,13.0886413,
SWE,SPC-GOTEBORG,DHL C/O DANX,UNISYS EUROPE LIMTED STOCK,Orrekulla industrigata 26,Hisings Kärra,,42536,37026,33710,Sweden,57.7927,12.0051,
FRA,MDC-FRA-WISSOUS,UNISYS C O DHL SUPPLY CHAIN,PARC D`ACTIVITéS DU MONTAVAS -BAT C,1  RUE COLBERT,WISSOUS,,91320,38000,38248,France,48.7333908,2.3259403,
FRA,SPC-CAEN,DHL C O NORMANDIE TRANSPORT EXP,UNISYS STOCK,MALUSO 170 AVENUE DU PARC,VERSON,,14790,38150,38233,France,49.1769630,-0.3197690,
FRA,SPC-MONTPELLIER,TEN,UNISYS STOCK,45 IMPASSE LOUIS FERDINAND HEROLD,MONTPELLIER,,34000,38151,38252,France,43.6047275,3.9011747,
FRA,SPC-LILLE,COLITEL,STOCK UNISYS,CRT N°1 RUE DE LA CROIX BOUGARD,LESQUIN,,59810,38153,38236,France,50.5908510,3.1112390,
FRA,SPC-METZ,DHL C O OBOX NETWORK,UNISYS EUROPE LIMITED STOCK,4 RUE GASTON RAMON,METZ,,57050,38155,38247,France,49.13972,6.17577,
FRA,SPC-STRASBOURG,COLITEL,STOCK UNISYS,12  RUE FORLEN,GEISPOLHEIM,,67118,38158,38256,France,48.5151690,7.6456190,
FRA,SPC-DIJON,CHRONOFRET,UNISYS STOCK,13 BIS RUE DU CHAMPS AUX PRETRES,SAINT APOLLINAIRE,FR,21850,38159,38234,France,47.3237985,5.0386146,
FRA,SPC-NICE,COLITEL,STOCK UNISYS,"ZONE AVITAILLEMENT BATIMENT CANNONICA ALLÉE DES AVITAILLEURS 06281 NICE CEDEX 3
",NICE,,6200,38160,38254,France,43.7101728,7.2619532,
FRA,SPC-NANTES,COLITEL,STOCK UNISYS,21 CHEMIN DE LA RABOTIÈRE,SAINT HERBLAIN,,44800,38161,38253,France,47.2132938,-1.6221040,
FRA,SPC-LYON,COLITEL,UNISYS EUROPE LIMITED STOCK,196 CHEMIN DU LORTARET,SAINT-PRIEST,,69800,38163,38237,France,45.71110612605392,4.954892195963919,
FRA,SPC-BORDEAUX,COLITEL,UNISYS EUROPE LIMITED STOCK,10 RUE NEWTON,TRESSES,,33370,38165,38228,France,44.83736844,-0.481224564,
FRA,SPC-MARSEILLE,COLITEL Marseille,Impasse Pythagore,Cap Horizon,VITROLLES,FR,13 127,38169,38245,France,43.4496688,5.2579968,
FRA,SPC-TOURS,MAT COURSE,PUDO UNISYS PPP37SCY,15 AV DU DANEMARK,TOURS,,37100,38481,38259,France,47.4174640,0.7060995,
FRA,SPC-C.FERRAND,EUROPACOURSE,UNISYS EUROPE STOCK,37 RUE JULES VERNE,CLERMONT FERRAND,,63100,38484,38232,France,45.7950636,3.1172305,
FRA,SPC-BREST,LOGISTIQUE AIR SERVICES,UNISYS EUROPE LIMITED STOCK,7 RUE MARIE CURIE,GOUESNOU,,29850,38490,38231,France,48.43068,-4.45393,
FRA,SPC-TOULOUSE,COLITEL,STOCK UNISYS,65 CHEMIN DE FENOUILLET,TOULOUSE,,31200,38528,38257,France,43.6411,1.416187,
FRA,SPC-RENNES,COLITEL,STOCK UNISYS,RUE DE LA CARRIERE,CESSON SEVIGNE,,35510,38529,38255,France,48.1194720,-1.6029230,
FRA,SPC-GRENOBLE,COLITEL,C O FRET VITE,125 ROUTE DU RUISSET,NOYAREY,,38360,38530,38235,France,45.2436257,5.6320371,
ITA,SPC-GENOVA,DHL C/O SPEDIREX SRL,UNISYS STOCK ,VIA ORGIERO CARLO 38,Genova,,16151,39010,39595,Italy,44.41952682,8.886072055,
ITA,MDC-ITA-MILAN,DHL - UNISYS EUROPE LIMITED,UNISYS STOCK,VIA WALTER TOBAGI 8,PESCHIERA BORROMEO,,20068,39026,39596,Italy,45.4392174,9.3037435,
ITA,SPC-BOLOGNA,WEB SERVICE SRL,UNISYS STOCK,VIA MARINO SERENARI 28 C,CASTEL MAGGIORE,,40013,39036,39594,Italy,44.5751652,11.3637308,
ITA,SPC-PADOVA,DHL C/O Truck Service srl,Via Breo 39,Piove di Sacco,Piove di Sacco,,35028,39053,39598,Italy,45.2902,12.03554,
ITA,SPC-ROMA,DHL C O EMILPRESS,UNISYS EUROPE LTD STOCK,VIA DEL MAGGIOLINO 168,ROMA,RM,155,39300,39599,Italy,41.8971729,12.6104914,
USA,SPC-DALLAS,DHL C O TFORCE LOGISTICS,UNISYS STOCK,DHL C O TFORCE LOGISTICS,CARROLLTON,TX,75006,40004,63366,USA,32.949536,-96.928422,
AUT,MDC-AUT-VIENNA,DHL - UNISYS EUROPE LIMITED,UNISYS STOCK,FREUDENAUER HAFENSTRASSE 20-22,WIEN,,1020,41020,41060,Austria,48.2091041,16.4150490,
CHE,SPC-GENEVA,DHL LOGISTIC (SCHWEIZ) AG,UNISYS EUROPE LTD STOCK,RUE DE LA BERGERE 5A,SATIGNY,CH,1242,41045,41038,Switzerland,46.2220223,6.0624672,
CHE,MDC-CHE-RUEMLANG,DHL   FASTLOG AG  ,UNISYS EUROPE STOCK,SCHUTZENMATTSTASSE 93,BULACH,,8180,41100,41059,Switzerland,47.53084166,8.528198039,
NOR,MDC-NOR-OSLO,DHL - UNISYS EUROPE LIMITED,UNISYS STOCK,HVAMVEIEN 6,SKJETTEN,,2013,42001,42004,Norway,59.9726571,11.0035015,
FIN,MDC-FIN-VANTAA,DHL - UNISYS EUROPE LIMITED,UNISYS STOCK,KATRIINANTIE 14,VANTAA,,1530,43000,43017,Finland ,60.2933524,25.0377686,
USA,SPC-HONOLULU,DHL C O CCH C O AGS,UNISYS STOCK,815-C WAUAKAMILO ROAD,HONOLULU,HI,968170000,43777,63390,USA,21.3433967,-157.8390944,
PRT,MDC-PRT-PRIOR VELHO,DHL-CO ERTIL LDA -UNISYS EUROPE LTD,UNISYS STOCK,RUA DE MOCAMBIQUE LOTE1 - FRACCAO B,PRIOR VELHO,,    2685-356,44000,44013,Portugal,38.7899736,-9.1210496,
PRT,SPC-OPORTO,ERTIL,ZONA INDUSTRIAL DA MAIA - SECTOR X,RUA NARCISO MACHADO 70,BARCA (MAIA),,    4475-250,44202,44015,Portugal,41.2489461,-8.6267041,
ZAF,MDC-CAPE TOWN FORTINET,DHL CO SEABOURNE INXPRESS PTY  LTD,15 CONCORDE CRESCENT,AIRPORT CITY,CAPE TOWN,,7490,46016,46029,South Africa,-33.97589,18.58975,
ZAF,MDC-ZAF-J`BURG (46020 ),BYTES SYSTEM INTEGRATION Altron TMT,"84 Ronald Ave,corner of Ronald Ave.","Clulee Road,Meadowview,Linbro Park",Sandton,Sandton,2090,46020,46002,South Africa,-26.09761,28.13387,
DEU,SPC-FRANKFURT,DHL SOLS,UNISYS EUROPE STOCK,AN DER TRIFT 63,DREIEICH,DE,63303,47000,47013,Germany,50.0048700,8.6925300,
DEU,SPC-SENNFELD,DHL SOLS,C O D.I.E DES KURIERE RUECKER B GBR,HANDWERKER STRASSE 8,SENNFELD,DE,97526,47012,47045,Germany,50.0437764,10.2629968,
DEU,SPC-HANNOVER,DHL SOLS,C O UNISYS DEUTSCHLAND GMBH,BAYERNSTRASSE 20,LANGENHAGEN,DE,30855,47036,47018,Germany,52.4879267,9.6900251,
DEU,SPC-BERLIN,MESSENGER FULFILLMENT GMBH,UNISYS EUROPE STOCK,PARKALLEE 26,LUDWIGSFELDE,DE,14974,47040,47004,Germany,52.3131079,13.2892843,
DEU,SPC-HAMBURG,DHL SOLUTIONS GMBH,C O UNISYS DEUTSCHLAND GMBH,RUNGEDAMM 32,HAMBURG,DE,21035,47044,47015,Germany,53.4873133,10.1535830,
DEU,MDC-DEU-MUENCHEN,DHL - MKL GMBH,UNISYS EUROPE LIMITED STOCK,ESCHENALLEE 6,SCHWAIG,DEU,85445,47093,47023,Germany,48.354,11.836,
DEU,SPC-NUERNBERG,DHL C O GO! EXPRESS A LOGISTICS GMB,UNISYS EUROPE STOCK,ELTERSDORFER STRABE 21,NUERNBERG,,90425,47100,47039,Germany,49.4655524,11.0769079,
DEU,SPC-DUESSELDORF,DHL SOLS,C O UNISYS DEUTSCHLAND GMBH,REISHOLZER WERFTSTRASSE 68,DUESSELDORF,DE,40589,47123,47011,Germany,51.1640762,6.8214420,
DEU,SPC-AUGSBURG,GO EXPRESS A LOGISTICS GMBH,UNISYS EUROPE STOCK,SüDTIROLER STR. 5,AUGSBURG,DE,86165,47168,47051,Germany,48.3830536,10.9429002,
DEU,SPC-LEIPZIG,MESSENGER LOGISTIC GMBH,C O UNISYS DEUTSCHLAND GMBH,AN DEN TIERKLINIKEN 42,LEIPZIG,DE,4103,47329,47019,Germany,51.3396955,12.3730747,
DEU,SPC-STUTTGART,MKL GMBH,C O UNISYS DEUTSCHLAND GMBH,ELLY-BEINHORN-STRASSE 3,OSTFILDERN,DE,73760,47775,47049,Germany,48.70551,9.24942,
ARE,SPC-DUBAI,DHL EXPRESS,UNISYS STOCK,POBOX6252 MEYDAN ROAD NAL AL SHEBA,DUBAI,DUBAI,0,50882,50881,United Arab Emirates,25.1617645,55.2970220,
MYS,MDC-MYS-SELANGOR,UNISYS (MALAYSIA) SDN BHD,C O DHL EXCEL SUPPLY CHAIN  LOT 4,PERSIARAN PERUSAHAAN SEKSYEN 23,SHAH ALAM,SELANGOR,40300,51001,51036,Malaysia,3.0524055,101.5390146,
JPN,SPC-TOKYO,DHL SUPPLY CHAIN LTD,UNISYS STOCK 1-10-9 SHINKINA KOTUKU,SHINKIBA LOGISTICSCENTER,TOKYO,JPN,    136-0082,53600,53666,JAPAN,35.6410460,139.8316947,
ISR,SPC-PETAH TIKVA,DHL Express (Israel) LTD,CTC Unisys Team ,Hermon St,Airport City,ISR,7019900,56582,56581,Israel,31.99263,34.914361,
THA,THAILAND DST ORDERING SITE    ,ISS RESOLUTION LIMITED,33 4 THE 9TH TOWER GRAND RAMA 9,16TH FLOOR  RAMA 9 ROAD,KHET HUAY KWANG,BANGKOK,10310,58001,58000,THAILAND,13.7493508,100.5993918,
BEL,MDC-BEL-BRUSSEL (IDC),DHL - UNISYS EUROPE LIMITED,UNISYS STOCK,WOLUWELAAN 145 IND.ZONE DIEGEM HOEK,DIEGEM,,1831,58004,32023,Belgium,50.8915225,4.4464588,
POL,MDC-POL-WARSZAW,DHL - UNISYS EUROPE LIMITED,UNISYS STOCK,UL.JANA PAWLA II 66,PIASECZNO K. WARSZAWY,,      05-500,59301,59302,Poland,52.0597610,20.9844207,
CZE,MDC-CZE-PRAHA,DHL - UNISYS EUROPE LIMITED,UNISYS STOCK,ZDEBRADSKA 69,RICANY - JAZLOVICE,,      251 01,60201,60200,Czechia Republic,49.9631064,14.6321868,
HUN,SPC-BUDAPEST,DHL SUPPLY CHAIN,UNISYS EUROPE LIMITED,VEREBELY LASZLO UTCA 02,BIATORBAGY,,2051,60301,60305,Hungary,47.471218,18.825220,
HKG,MDC-HKG-HONG KONG,UNISYS CHINA-HONG KONG LTD ,"19/FLOOR, GOODMAN INTERLINK",39 TSING YI ROAD,"TSING YI, NEW TERRITORIES",HK,999077,61000,60998,HONG KONG,22.3319964,114.1084574,
SGP,MDC-SGP-SINGAPORE,UNISYS SINGAPORE PTE LTD,C O DHL EXEL SUPPLY CHAIN SINGAPORE,1  GREENWICH DRIVE LEVEL 2,SINGAPORE,SG,533865,61010,61023,SINGAPORE,1.3520830,103.8198360,
CHN,MDC-CHN-BEIJING,UNISYS CHINA DHL LOGISTICS,BEIJING ECONOMIC AND TECHNOLOGY DEV,NO. 11 JINXIU STREET,BEIJING,CN,100176,61200,61203,CHINA,39.8017443,116.5053907,
CHN,SPC-SHANGHAI,UNISYS SHANGHAI C O DHL,WAREHOUSE 5,NO.99 YINXI ROAD,SHANGHAI,CN,200131,61222,61225,CHINA,31.3329325,121.6046574,
CHN,SPC-GUANGZHOU,DHL,C8 GGEC  NO 8 JINGHU RD SOUTH,XINHUA TOWN  HIUADU DISTRICT,GUANGZHOU,,510800,61224,61216,CHINA,23.4042743,113.2201860,
CHN,SPC-SHEN ZHEN,UNISYS CHINA C - DHL,NO21 A BUILDING 3 FLOOR JINMAO ROAD,3RD INDUSTRIAL ZONE GUAN LAN STREET,LONGHUA SHENZHEN,SH,518110,61226,61247,CHINA,22.6564090,114.0193510,
KOR,MDC-KOR-KANGSEO-GU,DHL KOREA METRO HUB,3FKENDALL SQUARE GEOMDAN LOGST PARK,700  DREAM-RO  SEO-GU,INCHEON,KR,22880,62000,60009,South Korea,37.478088,126.640289,
TWN,MDC-TWN-TAIPEI,UNISYS TAIWAN LTD     C-O DHL,10F  NO.129  XINDE RD,SANCHONG DIST,NEW TAIPEI CITY,TWN,24158,64000,64010,TAIWAN,25.0261583,121.5427093,
TWN,UNI-TAICHUNG,UNISYS TAIWAN LTD.,ROOM F  3F,NO.132  GONGYI RD.,TAICHUNG ,TAIWAN,40360,64003,64009,TAIWAN,24.1510175,120.6603425,
PHL,MDC-PHL-PARANAQUE,UNISYS PHILIPPINES LTD,C O DHL SUPPLY CHAIN PHILS BLDG H-,LA SUERTE KM.14 WEST SERVICE RD,PARANAQUE,,1709,67000,67002,PHILIPPINES,14.4793095,121.0198229,
ARG,MDC-ARG-BUENOS AIRES,DHL SUPPLY CHAIN,CP. C1437 - CVB,AV. 27 DE FEBERO 6350 CABA,BUENOS AIRES,AR,    C1107AAF,71911,71040,Argentina,-34.6704597,-58.4322904,
PRI,MDC-PRI-CAROLINA,UNISYS PUERTO RICO INC,SABANA GARDENS IND. PARK  CAROLINA,CALLE 4 RUEDAS LOTE 2 5-B  3,CAROLINA,PR,983,72106,72002,Puerto Rico,18.3760419,-65.9199093,
BRA,SPC-MATEC GOIANIA,PUDO GO GOIANIA,,RUA DR OLINTO MANSO PEREIRA 939,GOIANIA,GO,   74080-100,74517,77377,Brazil,-16.6850169,-49.2570860,
BRA,SPC-MATEC MANAUS,PUDO MANAUS,,AV DESEMBARGADOR JOAO MACHADO 739,ALVORADA,MANAUS,69043-000,74790,77214,Brazil,-3.073947,-60.0341447,
CHL,MDC-CHL-SANTIAGO,UNISYS SUDAMERICANA,ANDEN 60  PUDAHUEL,ENEA-BOULEVARD PONIENTE 1313,SANTIAGO,,,74806,74016,Chile,-33.4625429,-70.6516758,
BRA,SPC-DHL-BRASILIA  ,SPC - TRANSBRITTO EXPRESS,,Q SAAN QUADRA 1 LOTE 1120,BRASILIA,DF,70632100,77675,75556,Brazil,-15.826691,-47.921822,
COL,SPC-B/QUILLA,UNISYS DE COLOMBIA  S.A.,OFICINA DHL BARRANQUILLA.,CALLE 74 NO. 52 -16,BARRANQUILLA,ATLANTICO,3,76073,76636,COLOMBIA,11.0041072,-74.8069813,
COL,MDC-COL-BOGOTA,DHL EXPRESS COLOMBIA LTDA,C O UNISYS COLOMBIA,CARRERA 96B  25D-55,BOGOTA,BOGOTA,0,76128,76165,COLOMBIA,4.6908584,-74.0274241,
BRA,MDC-BRA-JANDIRA,UNISYS BRAZIL LTDA,RUA JOSE PEREIRA POSSIDONIO 200,200 - GAP E LOTE 11,JANDIRA,SP,06612-290,76782,75131,Brazil,-23.5287,-46.903381,
BRA,SPC-MATEC BELEM,PUDO PA BELEM,,AVE ROMULO MAIORANA  1008,BELEM,PA,   66093-005,76961,74879,Brazil,-1.4384860,-48.4634590,
BRA,SPC-MATEC FORTALEZA,PUDO CE FORTALEZA,,PROFESSOR GOMES DE MATOS 648,FORTALEZA,CE,   60416-392,76977,74885,Brazil,-3.7608775,-38.5452324,
BRA,SPC-MATEC POA,PUDO RS PORTO ALEGRE,,DOUTOR OSCAR BITTENCOURT 307 CS,PORTO ALEGRE,RS,   90850-150,76978,74891,Brazil,-30.060941,-51.2250960,
BRA,SPC-MATEC LONDRINA,SPC-MATEC LONDRINA,,R. JOSE DE ALENCAR  150,LONDRINA,PR,   86070-600,76979,74887,Brazil,-23.3002159,-51.1810479,
BRA,SPC-MATEC RECIFE,PUDO PE JABOATAO,,RUA CORONEL WALDEMAR BASGAL 158,JABOATAO DOS GUARARAPES,PE,   54400-170,76980,74892,Brazil,-8.1618470,-34.9219150,
BRA,SPC TRB – SALVADOR,SPC TRB – SALVADOR,,AV ANTONIO C.MAGALHAES 846 SL358,SALVADOR,BA,41825-900,77498,74896,Brazil,-12.9855334,-38.4672745,
BRA,SPC-MATEC ARACAJU,PUDO-ARACAJU,,RUA ITABAIANA  390,ARACAJU,SE,   49010-170,76982,74878,Brazil,-10.9220218,-37.0502685,
BRA,SPC - TRB – CAMPINAS,SPC - TRB – CAMPINAS,,R.ANTONIO NUNES DOS SANTOS 06,CAMPINAS,SP,13033-210,70690,74898,Brazil,-22.9097609,-47.0807053,
BRA,SPC-EASY - CURITIBA,SPC - IMPERIO CURITIBA,RUA CONSELHEIRO LAURINDO 815,ANDAR 10,CURITIBA,PR,80060-100 ,72087,74882,Brazil,-25.4515606,-49.2720387,
BRA,SPC - EASY – FLORIANOPOLIS,SPC - EASY – FLORIANOPOLIS,,AV PREFEITO OSMAR CUNHA 183 SL212,FLORIANOPOLIS,SC,88015-100,77618,74884,Brazil,-27.5766666,-48.5271049,
PER,MDC-PER-LIMA,DHL SLP,ALDEAS 7 LOTE 19,PROGRAMA AGROPECUARIO VILLA RICA,LIMA,,0,77316,77307,Peru,-12.0464,-77.0428,
BRA,SPC-EASY - VITORIA,PUDO VITORIA,RUA NEVES ARMOND 140,SALA 201,VITORIA,ES,29052-280,72088,74889,Brazil,-20.3121270,-40.3033907,
BRA,SPC-IMPERIO-BHZ,SPC-BELO HORIZONTE,,RUA JACUI  505 FLORESTA,BELO HORIZONTE,MG,   31110-050,77575,74880,Brazil,-19.9086606,-43.9325408,
USA,SPC-NEWARK,DHL C O DYNAMEX,UNISYS STOCK,200 CENTRAL AVENUE,TETERBORO,NJ,76080000,80366,63411,USA,40.8527190,-74.0623244,
USA,SPC-ATLANTA,DHL C O ATL COURIER,UNISYS STOCK,2200 NORCROSS PKWY  STE:230,NORCROSS,GA,300710000,80367,63350,USA,33.9851868,-84.2384170,
USA,SPC-BOSTON,DHL C O AGS,UNISYS STOCK,1380 MAIN STREET,WALTHAM,MA,24510000,80375,63354,USA,42.3971065,-71.2598997,
USA,SPC-MINNEAPOLIS,DHL C O T-Force,UNISYS STOCK,5095 Nathan Ln N,Plymouth,MN,55442,80385,63406,USA,45.04692,-93.40669,
USA,SPC-SAN FRANCISCO,DHL C O TFORCE -UNISYS STOCK,MAIN OFFICE - SE CORNER,30535 HUNTWOOD AVENUE,HAYWARD,CA,945440000,80397,63448,USA,37.6198007,-122.0562228,
USA,SPC-LOS ANGELES,DHL C O PROCOURIERC,UNISYS STOCK,1480 FRANCISCO ST,TORRANCE,CA,90501000,80405,63398,USA,33.8496812,-118.3026319,
USA,SPC-CLEVELAND,DHL C O TOP DAWG GROUP,,220 EASTVIEW DR #103,BROOKLYN HEIGHTS,OH,441310000,80420,63363,USA,41.4284978,-81.6725696,
USA,SPC-DETROIT,DHL C O RELAY EXPRESS INC,UNISYS STOCK,29107 AIRPORT DR BLDG 18,ROMULUS,MI,481740000,80424,63369,USA,42.2359366,-83.3241518,
USA,SPC-NEW YORK,DHL C O A1 - INTERNATIONAL,UNISYS STOCK,13-02 44TH AVENUE,LONG ISLAND CITY,NY,111010000,82025,63409,USA,40.7446790,-73.9485424,
USA,SPC-PHILADELPHIA,DHL C O SIR LANCELLOT COURIERS,UNISYS STOCK,1019 4TH AVE,LESTER,PA,190290000,83122,63437,USA,39.8654498,-75.2976775,
TUR,SPC-ISTANBUL,DHL LOJISTIK HIZM.A.S,UNISYS STOCK,ISTANBUL CAD. NO: 11,KEMERBURGAZ - ISTANBUL,TUR,34075,85220,85222,Turkey,41.1622010,28.9240210,
SAU,SPC-RIYADH FORTINET,UNISYS DHL EXPRESS  LOGISTICS DIVIS,P.O. BOX 22198,JARIR WHS AREA EXIT  16  AL SULAY,RIYADH,RIYADH,11495,87770,53691,Saudi Arabia,24.6748518,46.6261482,
GRC,SPC-ARGYROUPOLI,DHL C O SPEEDair ltd,,Tatoiou 231,Metamorfosi,,14452,89330,89331,Greece,37.9093343,23.7408677,
USA,SPC-SAN JOSE,DHL C O PACIFIC COAST LOGISTIX ,UNISYS STOCK,1730 Junction Ave STE F,San Jose,CA,951120000,93841,63449,USA,37.3742492,-121.9074518,
USA,SPC-JACKSONVILLE,DHL C O VELOX,UNISYS STOCK,6900 PHILIPS HIGHWAY. SUITE 20,JACKSONVILLE,FL,322160000,96378,63393,USA,30.2906907,-81.5706109,
USA,SPC-CHARLOTTE,DHL C O AMERICAN EXPEDITING,UNISYS STOCK,1225 GRAPHIC COURT   SUITE E – F,CHARLOTTE,NC,28206,96442,63357,USA,35.265572,-80.82251,
JPN,SPC-OSAKA,DHL SUPPLY CHAIN LTD,UNISYS STOCK,2-4-43 NANKO-MINAMI SUMINOE-KU,OSAKA CITY  OSAKA,OSAKA,5590032,53605,53724,JAPAN,34.6150175,135.4350651,
JPN,SPC-NAGOYA,DHL SUPPLY CHAIN LTD,UNISYS STOCK,1-1-208 IBUKA-CHO NAKAMURA-KU,NAGOYA-SHI  AICHI,NAGOYA,4590003,53606,53725  ,JAPAN,35.1778070,136.8757454,
JPN,SPC-FUKUOKA,DHL SUPPLY CHAIN LTD,UNISYS STOCK,1-42-26 MATSUSHIMA HIGASHI-KU,FUKUOKA,FUKUOKA,8120004,53607,53726,JAPAN,33.6243794,130.4385730,
ROU,MDC BUCHAREST FORTINET,DHL CO PEGASUS SSC SRL,GATT BUILDING UNISYS STOCK,ION CREANGA NO 14,OTOPENI,,75100,59374,59375,Romania,44.5402592,26.0557622,
ROU,SPC CLUJ NAPOCA FORTINET,KUEHNE + NAGEL LOGISTICS,Unisys Stock,"ORASTIEI STREET, 10",TRANSILVANIA,ROU,400398,59370,59376,Romania,46.1840561,25.2223974,
IDN,MOI JAKARTA,PT UNISISTAMA MEGAH,,JL. PROF. DR. LATUMETEN RAYA NO. 7E ,JAKARTA,JAKARTA,11330,50043,50044,Indonesia,-6.1439313,106.7938766,
USA,SPC-JACKSON ,DHL C O FINAL MILE EXP COURIER,UNISYS STOCK,400 COUNTRY PLACE PKWY SUITE D,PEARL,MS,39208,21380,21381,USA,32.27175,-90.0893,
BRA,SPC-EASY RIO DE JANEIRO,NEW-SPC-EASY RIO DE JANEIRO,,AV NOVA YORK 569,RIO DE JANEIRO,RJ,21041040,77457,74894,Brazil,-22.86396694928439,-43.2492381184698,
RUS,SPC-MOSCOW,DHL INTERNATIONAL,SPC WAREHOUSE,STR 8 MARTA BLD 14,MOSCOW,,127092,52440,52441,Russia,55.80293718911652,37.553237779026496,
SAU,SPC-DHAHRAN,DHL EXPRESS - LOGISTICS DEPARTMENT,HUGAYET MOD CTR  GRD FLOOR  PO 897,KING KHALID BRANCH RD. IBN SINA ARE,AL KHOBAR,SAU,34627,87772,87774,Saudi Arabia,26.24215750605745,50.196781168336486,
SAU,SPC-JEDDAH,DHL EXPRESS  LOGISTICS DIVISION,KAIA-KING ABDULAZIZ INTL AIRPORT,NEAR SAUDIA CARGO,JEDDAH,SAU,23632,87773,87775,Saudi Arabia,21.669804068409217,39.15481579706922,
MAC,SPC-MACAU,S.F. HOLDING C O DHL,UNISYS STOCK,80-92 DA RUA SUL DO PARQUE INDUSTRIAL,MACAU,MO,0,61037,61039,MACAU,22.192,113.5513,
PAK,SPC-KARACHI,DHL WAREHOUSE,SITE next Metro Habib Cash & Carry,"D22/A, Manghopir Rd",KARACHI,PAK,75700,52946,52951,Pakistan,24.8607,67.0011,
PAK,SPC-ISLAMABAD,DHL WAREHOUSE,PLOT   65 STREET 13 SECTOR I-9 2,INDUSTRIAL AREA ,ISLAMABAD,PAK,0,52947,52952,Pakistan,33.6844,73.0479,
BRA,SPC - EASY – VITORIA,PUDO VITORIA,RUA NEVES ARMOND 140,SALA 201,VITORIA,ES,29052-280,72088,74889,Brazil,-20.3121270,-40.3033907,
BRA,SPC - EASY - CURITIBA,SPC - IMPERIO CURITIBA,RUA CONSELHEIRO LAURINDO 815,ANDAR 10,CURITIBA,PR,80060-100 ,72087,74882,Brazil,-25.4515606,-49.2720387,
